LANDSAT 9               
1 49260U 21088A   23294.10271811  .00000809  00000+0  18969-3 0  9993
2 49260  98.2177   2.4125 0001124  90.0068 270.1259 14.57113288109727
